STARLINK-32792          
1 62504U 25003T   26068.01709129  .00034798  00000+0  12676-2 0  9992
2 62504  43.0047 292.3353 0002838 267.8512  92.2014 15.27590551 66455
FLOCK 4G-15             
1 62678U 25009BX  26068.71779869  .00012647  00000+0  47575-3 0  9991
2 62678  97.4054 151.1927 0003699 316.8208  43.2740 15.27266411121358
